NORAD_CAT_ID,OBJECT_NAME,OBJECT_TYPE,EPOCH,MEAN_MOTION,ECCENTRICITY,INCLINATION,RA_OF_ASC_NODE,ARG_OF_PERICENTER,MEAN_ANOMALY,BSTAR,MEAN_MOTION_DOT,MEAN_MOTION_DDOT,TLE_LINE0,TLE_LINE1,TLE_LINE2,SEMIMAJOR_AXIS,PERIOD,APOGEE,PERIGEE,DECAYED
51717.0,STARLINK-3445,PAYLOAD,2023-01-18 10:55:19,15.08862034,0.0001551999999999,53.2162,74.7725,72.8383,287.2779,0.0013622999999999,0.00021473,0.0,0 STARLINK-3445,1 51717U 22016D   23018.45509105  .00021473  00000-0  13623-2 0  9999,2 51717  53.2162  74.7725 0001552  72.8383 287.2779 15.08862034 51519,6917.813,95.436,540.752,538.604,0.0
51717.0,STARLINK-3445,PAYLOAD,2023-01-18 20:27:38,15.08860558,0.0001554,53.2158,72.9901,79.5959,280.5208,0.00073621,0.00011455,0.0,0 STARLINK-3445,1 51717U 22016D   23018.85252704  .00011455  00000-0  73621-3 0  9997,2 51717  53.2158  72.9901 0001554  79.5959 280.5208 15.08860558 51573,6917.818,95.436,540.758,538.6080000000001,0.0
51717.0,STARLINK-3445,PAYLOAD,2023-01-19 04:24:33,15.08848254,0.0001468,53.2163,71.5026,86.0874,274.0286,3.6034e-05,2.86e-06,0.0,0 STARLINK-3445,1 51717U 22016D   23019.18372604  .00000286  00000-0  36034-4 0  9994,2 51717  53.2163  71.5026 0001468  86.0874 274.0286 15.08848254 51624,6917.855,95.437,540.736,538.705,0.0
51717.0,STARLINK-3445,PAYLOAD,2023-01-19 09:10:42,15.08859912,0.0001714,53.2164,70.6101,95.8251,264.2937,0.00026226,3.891e-05,0.0,0 STARLINK-3445,1 51717U 22016D   23019.38244101  .00003891  00000-0  26226-3 0  9992,2 51717  53.2164  70.6101 0001714  95.8251 264.2937 15.08859912 50525,6917.82,95.436,540.87,538.499,0.0
51717.0,STARLINK-3445,PAYLOAD,2023-01-19 10:46:05,15.08863775,0.0001496999999999,53.2156,70.3124,85.9119,274.2044,0.00036306,5.499e-05,0.0,0 STARLINK-3445,1 51717U 22016D   23019.44867985  .00005499  00000-0  36306-3 0  9996,2 51717  53.2156  70.3124 0001497  85.9119 274.2044 15.08863775 51667,6917.808000000001,95.436,540.7080000000001,538.637,0.0
51717.0,STARLINK-3445,PAYLOAD,2023-01-20 02:39:57,15.08831609,0.0001327,53.2155,67.3381,102.0319,258.0822,-0.00028922,-4.887e-05,0.0,0 STARLINK-3445,1 51717U 22016D   23020.11108514 -.00004887  00000-0 -28922-3 0  9995,2 51717  53.2155  67.3381 0001327 102.0319 258.0822 15.08831609 51768,6917.906,95.438,540.689,538.8530000000001,0.0
51717.0,STARLINK-3445,PAYLOAD,2023-01-20 10:36:53,15.08838657,0.0001331999999999,53.2154,65.8525,101.6712,258.4429,0.00042417,6.469e-05,0.0,0 STARLINK-3445,1 51717U 22016D   23020.44228604  .00006469  00000-0  42417-3 0  9995,2 51717  53.2154  65.8525 0001332 101.6712 258.4429 15.08838657 50685,6917.884,95.438,540.6709999999999,538.828,0.0
51717.0,STARLINK-3445,PAYLOAD,2023-01-21 08:52:18,15.08838431,0.0001343,53.2144,61.6885,92.6036,267.511,0.00067301,0.00010439,0.0,0 STARLINK-3445,1 51717U 22016D   23021.36965556  .00010439  00000-0  67301-3 0  9992,2 51717  53.2144  61.6885 0001343  92.6036 267.5110 15.08838431 51956,6917.885,95.438,540.679,538.821,0.0
51717.0,STARLINK-3445,PAYLOAD,2023-01-21 12:03:04,15.08849408,0.0001496,53.2154,61.0929,96.3833,263.7329,0.0010442,0.00016374,0.0,0 STARLINK-3445,1 51717U 22016D   23021.50213440  .00016374  00000-0  10442-2 0  9993,2 51717  53.2154  61.0929 0001496  96.3833 263.7329 15.08849408 51973,6917.852,95.437,540.752,538.682,0.0
51717.0,STARLINK-3445,PAYLOAD,2023-01-22 08:43:05,15.0885062,0.0001463,53.215,57.2289,81.661,278.4548,0.00065061,0.00010085,0.0,0 STARLINK-3445,1 51717U 22016D   23022.36325549  .00010085  00000-0  65061-3 0  9993,2 51717  53.2150  57.2289 0001463  81.6610 278.4548 15.08850620 52109,6917.848000000001,95.437,540.725,538.701,0.0
51717.0,STARLINK-3445,PAYLOAD,2023-01-23 02:12:19,15.08845019,0.0001496999999999,53.2149,53.9575,74.9078,285.208,0.00035778,5.411e-05,0.0,0 STARLINK-3445,1 51717U 22016D   23023.09189802  .00005411  00000-0  35778-3 0  9993,2 51717  53.2149  53.9575 0001497  74.9078 285.2080 15.08845019 52213,6917.865,95.437,540.766,538.694,0.0
51717.0,STARLINK-3445,PAYLOAD,2023-01-24 05:13:53,15.08833398,0.0001740999999999,53.216,48.8989,104.4403,255.6782,0.00032738,4.925e-05,0.0,0 STARLINK-3445,1 51717U 22016D   23024.21797881  .00004925  00000-0  32738-3 0  9992,2 51717  53.2160  48.8989 0001741 104.4403 255.6782 15.08833398 52386,6917.901,95.438,540.97,538.561,0.0
51717.0,STARLINK-3445,PAYLOAD,2023-01-25 08:15:26,15.08842117,0.0001603,53.2177,43.847,111.0984,249.018,0.00062725,9.709e-05,0.0,0 STARLINK-3445,1 51717U 22016D   23025.34406203  .00009709  00000-0  62725-3 0  9996,2 51717  53.2177  43.8470 0001603 111.0984 249.0180 15.08842117 52556,6917.874,95.437,540.8480000000001,538.63,0.0
51717.0,STARLINK-3445,PAYLOAD,2023-01-26 08:06:13,15.08849456,0.0001392,53.2167,39.3857,107.4142,252.7003,0.00053709,8.272e-05,0.0,0 STARLINK-3445,1 51717U 22016D   23026.33766130  .00008272  00000-0  53709-3 0  9990,2 51717  53.2167  39.3857 0001392 107.4142 252.7003 15.08849456 52709,6917.851,95.437,540.679,538.754,0.0
51717.0,STARLINK-3445,PAYLOAD,2023-01-27 01:35:28,15.08845395,0.0001603,53.2173,36.1133,105.5375,254.5794,0.00017333,2.472e-05,0.0,0 STARLINK-3445,1 51717U 22016D   23027.06630090  .00002472  00000-0  17333-3 0  9995,2 51717  53.2173  36.1133 0001603 105.5375 254.5794 15.08845395 52817,6917.8640000000005,95.437,540.8380000000001,538.62,0.0
51717.0,STARLINK-3445,PAYLOAD,2023-01-27 12:43:10,15.08849557,0.0001274999999999,53.2164,34.0324,94.0478,266.066,0.00020256,2.938e-05,0.0,0 STARLINK-3445,1 51717U 22016D   23027.52997871  .00002938  00000-0  20256-3 0  9994,2 51717  53.2164  34.0324 0001275  94.0478 266.0660 15.08849557 51753,6917.851,95.437,540.5980000000001,538.8340000000001,0.0
51717.0,STARLINK-3445,PAYLOAD,2023-01-28 06:12:25,15.08837993,8.7e-05,53.2176,30.7618,92.7997,267.3095,4.1791e-06,-2.21e-06,0.0,0 STARLINK-3445,1 51717U 22016D   23028.25862275 -.00000221  00000-0  41791-5 0  9997,2 51717  53.2176  30.7618 0000870  92.7997 267.3095 15.08837993 52990,6917.887,95.438,540.3530000000001,539.15,0.0
51717.0,STARLINK-3445,PAYLOAD,2023-01-28 09:23:10,15.08849704,0.0001372,53.2176,30.1652,95.5616,264.5532,0.00015625,2.2e-05,0.0,0 STARLINK-3445,1 51717U 22016D   23028.39109844  .00002200  00000-0  15625-3 0  9991,2 51717  53.2176  30.1652 0001372  95.5616 264.5532 15.08849704 53011,6917.851,95.437,540.665,538.767,0.0
51717.0,STARLINK-3445,PAYLOAD,2023-01-29 06:03:12,15.08843377,0.0001207,53.2169,26.3005,82.0385,278.0744,0.00010877,1.444e-05,0.0,0 STARLINK-3445,1 51717U 22016D   23029.25222244  .00001444  00000-0  10877-3 0  9990,2 51717  53.2169  26.3005 0001207  82.0385 278.0744 15.08843377 53142,6917.87,95.437,540.57,538.9,0.0
51717.0,STARLINK-3445,PAYLOAD,2023-01-29 09:13:58,15.08846611,0.0001247,53.2167,25.7057,81.3994,278.714,0.00016289,2.306e-05,0.0,0 STARLINK-3445,1 51717U 22016D   23029.38470100  .00002306  00000-0  16289-3 0  9991,2 51717  53.2167  25.7057 0001247  81.3994 278.7140 15.08846611 52030,6917.86,95.437,540.588,538.863,0.0
51717.0,STARLINK-3445,PAYLOAD,2023-01-30 09:04:45,15.08848993,0.0001229,53.216,21.2442,86.1168,273.9965,0.00021751,3.176e-05,0.0,0 STARLINK-3445,1 51717U 22016D   23030.37830050  .00003176  00000-0  21751-3 0  9992,2 51717  53.2160  21.2442 0001229  86.1168 273.9965 15.08848993 53317,6917.853,95.437,540.568,538.868,0.0
51717.0,STARLINK-3445,PAYLOAD,2023-01-30 23:23:13,15.0884085,0.0001334,53.2155,18.5675,89.4716,270.6429,7.003e-05,8.27e-06,0.0,0 STARLINK-3445,1 51717U 22016D   23030.97446353  .00000827  00000-0  70030-4 0  9992,2 51717  53.2155  18.5675 0001334  89.4716 270.6429 15.08840850 53403,6917.878,95.438,540.666,538.82,0.0
51717.0,STARLINK-3445,PAYLOAD,2023-01-31 08:55:32,15.08845233,0.0001358,53.2162,16.7841,90.647,269.4678,0.0001255,1.71e-05,0.0,0 STARLINK-3445,1 51717U 22016D   23031.37190118  .00001710  00000-0  12550-3 0  9996,2 51717  53.2162  16.7841 0001358  90.6470 269.4678 15.08845233 52336,6917.864,95.437,540.669,538.79,0.0
51717.0,STARLINK-3445,PAYLOAD,2023-02-01 05:35:32,15.08849974,0.0001349,53.2167,12.9189,89.9254,270.1893,0.00014288,1.987e-05,0.0,0 STARLINK-3445,1 51717U 22016D   23032.23301724  .00001987  00000-0  14288-3 0  9995,2 51717  53.2167  12.9189 0001349  89.9254 270.1893 15.08849974 53598,6917.85,95.437,540.648,538.782,0.0
51717.0,STARLINK-3445,PAYLOAD,2023-02-01 08:46:18,15.08851301,0.0001372,53.2166,12.3246,92.7314,267.3835,0.00018766,2.701e-05,0.0,0 STARLINK-3445,1 51717U 22016D   23032.36549671  .00002701  00000-0  18766-3 0  9994,2 51717  53.2166  12.3246 0001372  92.7314 267.3835 15.08851301 52488,6917.846,95.437,540.66,538.762,0.0
51717.0,STARLINK-3445,PAYLOAD,2023-02-02 02:15:34,15.08835598,0.0001371,53.2163,9.0528,99.5897,260.525,-8.7509e-06,-4.27e-06,0.0,0 STARLINK-3445,1 51717U 22016D   23033.09414590 -.00000427  00000-0 -87509-5 0  9994,2 51717  53.2163   9.0528 0001371  99.5897 260.5250 15.08835598 53725,6917.894,95.438,540.707,538.81,0.0
51717.0,STARLINK-3445,PAYLOAD,2023-02-02 08:37:06,15.08844084,0.0001314,53.2172,7.8637,98.4701,261.644,0.00011204,1.496e-05,0.0,0 STARLINK-3445,1 51717U 22016D   23033.35910217  .00001496  00000-0  11204-3 0  9992,2 51717  53.2172   7.8637 0001314  98.4701 261.6440 15.08844084 52633,6917.868,95.437,540.642,538.824,0.0
51717.0,STARLINK-3445,PAYLOAD,2023-02-03 06:52:30,15.08852382,0.0001253,53.2165,3.7004,101.0374,259.0759,0.00052368,8.059e-05,0.0,0 STARLINK-3445,1 51717U 22016D   23034.28646184  .00008059  00000-0  52368-3 0  9992,2 51717  53.2165   3.7004 0001253 101.0374 259.0759 15.08852382 53902,6917.843,95.437,540.574,538.841,0.0
51717.0,STARLINK-3445,PAYLOAD,2023-02-03 16:24:49,15.08845599,0.0001213,53.2166,1.9163,106.0883,254.0243,0.00034074,5.14e-05,0.0,0 STARLINK-3445,1 51717U 22016D   23034.68390265  .00005140  00000-0  34074-3 0  9994,2 51717  53.2166   1.9163 0001213 106.0883 254.0243 15.08845599 53966,6917.863,95.437,540.567,538.889,0.0
